#dP2024  4 12 18  0  0.00000000      96 __u+U IGS20 EXT  IAC
## 2309 496800.00000000   900.00000000 60412 0.7500000000000
+  118   C06C07C08C09C10C11C12C13C14C16C19C20C21C22C23C24C25
+        C26C27C28C29C30C32C33C34C35C36C37C38C39C40C41C42C43
+        C44C45C46E02E03E04E05E07E08E09E10E11E12E13E14E15E19
+        E21E24E25E26E27E30E31E33E34E36G02G03G04G05G06G07G08
+        G09G10G11G12G13G14G15G16G17G18G19G20G21G22G23G24G25
+        G26G27G28G29G30G31G32J02J03J04R01R02R03R04R05R07R08
+        R09R11R12R13R14R15R16R17R18R19R20R21R22R24R25R26  0
++        10  9  8 10  8  9  8  9  8 11  6  9  7  6  7  9  9
++         7  9  8  8  8  7  8  7  8  8  8 11 10 10  8 10 10
++         8  7  7  7  7  8  7  7  7  8  8  8  8  6  7  7  7
++         6  7  6  7  6  7  7  7  8  7  9  7  7  8  7 10  7
++         7  7  7  8  7  7  8  7  7  7  7  7 10  7  7  7  6
++         6  7  6  7  6  7  7  9  8 10  8  8  9  8  7  8  7
++         9  8 10  7  8  9  8  8  7 10 10  8  9  8  7  8  0
%c M  cc GPS ccc cccc cccc cccc cccc ccccc ccccc ccccc ccccc
%c cc cc ccc ccc cccc cccc cccc cccc ccccc ccccc ccccc ccccc
%f  0.0000000  0.000000000  0.00000000000  0.000000000000000
%f  0.0000000  0.000000000  0.00000000000  0.000000000000000
%i    0    0    0    0      0      0      0      0         0
%i    0    0    0    0      0      0      0      0         0
/* IAC                                ULTRA-RAPID PREDICTION
/* S/V CLOCKS ARE ALIGNED TO GNSS TIME                      
/* G:C1WC2W R:C1PC2P E:C1XC5X C:C2IC6I J:C1CC2S             
/* PCV:IGS20_2290 OL/AL:FES2004  NONE     YN ORB:CoN CLK:CoN
*  2024 04 13  8 30  0.00000000
PC06  -4117.752987  24558.725553 -33946.705149    342.825905
PC07 -17382.982160  36053.722062  12983.115980   -824.976831
PC08  -2701.964854  37726.576903  18836.224044    -20.824911
PC09   1721.956359  25974.176329 -32573.051230   -755.725779
PC10  -9466.503775  36012.794770  19578.301359      3.120419
PC11  -2802.605397 -15424.633215 -23022.392923    509.718637
PC12  18149.631570 -11459.012126 -17798.657199   -230.666445
PC13   2295.764318  40529.971826  12045.778671    430.816305
PC14   3502.315217 -24295.775753  13353.165062    632.809316
PC16 -10504.778935  21614.658101 -34361.032435   -455.500848
PC19   4264.148582  19240.971290 -19715.359107   -914.678121
PC20  -9585.460130  25366.517952  -6485.057506   -355.437956
PC21  18958.139864 -16635.486623 -11960.863587   -962.840888
PC22  16532.591341   1675.759459 -22423.172104    -40.455630
PC23 -19780.189170 -13529.437431 -14295.420395   -775.670851
PC24   2032.778688 -21640.720241  17474.720041    940.904892
PC25 -13305.564280 -24438.539127   1966.353201    373.658703
PC26  15091.180923  -6440.228500  22556.148966   -276.574119
PC27 -24619.950154   7416.578005  10837.214776    298.348277
PC28 -27292.364490  -3473.786479  -4677.398877    228.091954
PC29  13300.035443  13832.362835  20251.442980    267.562770
PC30  -8943.467321  15412.108515  21469.932389    -55.168350
PC32 -18849.041733  16650.184194  12087.207625   -601.084125
PC33  -4326.105938 -19335.598840  19669.395330   -971.023272
PC34   7090.397854 -15734.353368 -21940.969399    411.218958
PC35  27328.549092   2608.715077   4878.015037    388.120316
PC36  12617.319328  24799.942842  -2166.737608     49.892708
PC37 -15365.974890   5852.444016 -22537.890344   -957.599636
PC38  -7718.444682  33708.017778  24260.501333    148.722966
PC39 -15556.999705  19881.630782 -33736.251278     -7.962495
PC40 -24870.546703  31595.529057  12190.068328    -65.258040
PC41 -16183.320736  -2618.918090  22637.330503   -924.186800
PC42  10640.538394 -25350.215815   4949.712235   -443.334770
PC43 -12328.738326 -14263.120875 -20595.675168     67.811593
PC44  24364.859736  -8380.511162 -10695.543187    442.352661
PC45  19675.985262  13648.999755  14341.975901    -80.022717
PC46  -1339.868800  22077.101572 -17045.031215   -139.604180
PE02 -14713.751160  16669.886154 -19556.621971    119.082094
PE03 -25316.270396  14994.508299  -3148.917414   -106.884547
PE04   9822.681697 -20045.317439  19455.365505   -372.463390
PE05 -25676.739246   1260.296482  14677.310097   4738.120180
PE07  10658.350112  13509.624595 -24073.910512   -114.303715
PE08 -10671.119377  19972.358585 -19048.863638   -254.264142
PE09 -10460.670582 -13469.865452  24199.601249   -405.474218
PE10 -10821.457791 -20984.761518 -17861.956394   -616.778759
PE11 -19616.721500 -20234.434692  -9099.021624   3045.915265
PE12  -1276.986576 -18690.452236 -22929.108961   -992.042856
PE13  19198.784275  20326.690589   9694.860006    -20.995715
PE14 -19327.735469  12892.775021   4290.165539      5.281267
PE15    717.673244  18381.079825  23189.909785    -96.819723
PE19  26206.500056 -13717.435580   1166.375396   -252.220264
PE21  16413.166494   4647.170828  24183.876724   -589.007332
PE24  -8405.296802 -24343.160067 -14595.827685   -704.904194
PE25 -16350.182142  -5116.357018 -24139.496613      3.281002
PE26  26146.478699   9866.475501  -9742.799179    424.464481
PE27   8612.901844  24124.777671  14833.954869   -323.201488
PE30  -4382.253753  29093.929489  -3312.773087   -193.919813
PE31   4167.109382 -29135.458135   3144.118295    -20.714423
PE33  18284.842309  -5268.001401 -22671.503386     10.350811
PE34 -17881.716128   5728.327243  22876.798848   -105.407247
PE36 -26152.837912 -10372.950189   9226.940334   -212.708776
PG02 -22223.010487 -14256.447033  -3549.126350   -454.180069
PG03 -12165.902860 -13732.562599  19104.965366    308.000829
PG04 -18215.092053  -5511.047158  18601.370000    337.680785
PG05   6333.841105  24227.376995  -8884.860452   -168.964005
PG06  -8441.153514  11927.703548  22243.427454    324.107331
PG07 -22659.020265  -2936.897046 -13420.759868   -106.232788
PG08 -10140.893938 -11877.377863 -21618.452783    118.959714
PG09 -24167.892447   6193.794144   9109.664539    158.704603
PG10  10641.979331 -18891.829859 -14908.406177     -8.354241
PG11   4370.213346  18609.356062  18484.141039   -635.073094
PG12  11017.795805  15673.704871  18134.055191   -496.141140
PG13     79.664950  15679.401019 -21609.687258    642.330643
PG14 -13299.370040  15220.461634 -17099.684042    375.104644
PG15  11518.758749  11318.052674 -21594.896318    147.916923
PG16   -622.065820 -25805.530957  -5471.688195   -317.913386
PG17 -22695.643188  13438.111433   4197.128577    711.218673
PG18  21868.118757   2116.963365 -15046.432996   -593.614541
PG19 -17095.324672  15857.627918  12171.345261    467.535881
PG20   1152.103331  26392.448082   3527.206375    380.355892
PG21 -19567.518638 -16496.004893  -8356.525658    127.404041
PG22 -10227.299704  22102.694370 -10518.181186      1.237993
PG23  14362.220010  -6679.629596 -21262.824006    199.829103
PG24  20725.460770  15815.353159  -6529.354138   -458.778701
PG25  14955.383815   4889.275143  21086.857305    493.648076
PG26   4745.937943 -24706.422135   7761.985945    167.307263
PG27   2544.864318 -17298.837051 -20152.924848    -18.336513
PG28  10865.598979 -11064.482844  21547.604598   -201.452993
PG29  24091.375729  -2273.213704  11019.327265   -602.020657
PG30 -16083.020076   7128.687885 -19829.625741   -405.934258
PG31    875.410698 -16684.146700  20344.815924   -228.013962
PG32  20232.794699 -15928.927748   6267.628413   -618.038336
PJ02 -22813.053748  31459.679153 -11845.430870     -4.006136
PJ03 -28365.983335  22069.566532  27164.451047     -0.061756
PJ04 -31958.860219  27407.930785   9053.831469     50.469497
PR01  -8301.764307  20273.701820 -13044.611161     82.376646
PR02   4708.814045  10686.456825 -22634.049522    -22.705939
PR03  15930.977122  -4781.938815 -19265.067928     98.181163
PR04  18128.449186 -17072.990240  -5468.568589    231.824094
PR05  10677.606435 -20227.023345  11290.290767    129.896831
PR07 -16350.894255   5562.593929  18837.489881     80.130833
PR08 -18022.174017  17279.461425   5364.270093    -75.067987
PR09 -11975.408536 -21616.785780  -6476.032998    180.773997
PR11  -8322.328098   8373.438039 -22600.598499     28.123908
PR12   2631.952191  22795.060035 -11133.161046     38.952546
PR13  10695.340291  22796.801794   4066.407562    -46.262201
PR14  13469.795962   8314.025293  20005.322452     26.378192
PR15   7751.441977  -9920.690150  22202.398556     80.557554
PR16  -2643.109029 -22668.068873  11439.434158     24.771097
PR17  25148.365037   4226.760844  -1138.679164     77.589515
PR18  19220.261359  -3653.823119 -16323.863193    136.937639
PR19   5657.331004  -9259.578704 -23088.400944   -272.893921
PR20 -16206.906070 -11230.940591 -16206.160764   -111.167134
PR21 -25083.086612  -4432.237236   1142.505662    -92.369679
PR22 -18615.038567   3985.439446  17010.723876    115.605341
PR24  17032.797520  10757.060841  15665.918764    -51.633401
PR25 -24945.788719  -5108.650719   1367.743960    -28.860345
PR26 -18069.219578  16805.516621   6433.149330    -25.178610
EOF
